NORAD_CAT_ID,OBJECT_NAME,OBJECT_TYPE,EPOCH,MEAN_MOTION,ECCENTRICITY,INCLINATION,RA_OF_ASC_NODE,ARG_OF_PERICENTER,MEAN_ANOMALY,BSTAR,MEAN_MOTION_DOT,MEAN_MOTION_DDOT,TLE_LINE0,TLE_LINE1,TLE_LINE2,SEMIMAJOR_AXIS,PERIOD,APOGEE,PERIGEE,DECAYED
54195.0,STARLINK-5258,PAYLOAD,2023-08-20 03:23:39,15.08832367,0.0001235,53.216,220.5732,91.5805,268.5329,1.6562e-05,-2.4e-07,0.0,0 STARLINK-5258,1 54195U 22141AQ  23232.14143208 -.00000024  00000-0  16562-4 0  9990,2 54195  53.2160 220.5732 0001235  91.5805 268.5329 15.08832367 45448,6917.904,95.438,540.623,538.914,0.0
54195.0,STARLINK-5258,PAYLOAD,2023-08-21 08:00:35,15.08843917,0.000127,53.2158,215.2201,89.8481,270.2656,6.7814e-05,7.92e-06,0.0,0 STARLINK-5258,1 54195U 22141AQ  23233.33374598  .00000792  00000-0  67814-4 0  9997,2 54195  53.2158 215.2201 0001270  89.8481 270.2656 15.08843917 45622,6917.868,95.437,540.612,538.855,0.0
54195.0,STARLINK-5258,PAYLOAD,2023-08-21 23:54:27,15.08836598,0.0001352,53.216,212.2439,91.5836,268.5311,6.9422e-05,8.17e-06,0.0,0 STARLINK-5258,1 54195U 22141AQ  23233.99615135  .00000817  00000-0  69422-4 0  9999,2 54195  53.2160 212.2439 0001352  91.5836 268.5311 15.08836598 45726,6917.891,95.438,540.691,538.82,0.0
54195.0,STARLINK-5258,PAYLOAD,2023-08-23 07:42:09,15.08846404,0.0001483,53.216,206.2988,91.203,268.9132,3.2555e-05,2.3e-06,0.0,0 STARLINK-5258,1 54195U 22141AQ  23235.32094810  .00000230  00000-0  32555-4 0  9995,2 54195  53.2160 206.2988 0001483  91.2030 268.9132 15.08846404 45920,6917.861,95.437,540.752,538.7,0.0
54195.0,STARLINK-5258,PAYLOAD,2023-08-24 07:32:57,15.08839639,0.0001414,53.2158,201.8377,99.9003,260.2149,2.4852e-05,1.08e-06,0.0,0 STARLINK-5258,1 54195U 22141AQ  23236.31455288  .00000108  00000-0  24852-4 0  9990,2 54195  53.2158 201.8377 0001414  99.9003 260.2149 15.08839639 45845,6917.881,95.438,540.725,538.768,0.0
54195.0,STARLINK-5258,PAYLOAD,2023-08-25 07:23:43,15.08845736,0.0001505,53.2163,197.3765,93.9227,266.1937,6.3125e-05,7.17e-06,0.0,0 STARLINK-5258,1 54195U 22141AQ  23237.30814733  .00000717  00000-0  63125-4 0  9996,2 54195  53.2163 197.3765 0001505  93.9227 266.1937 15.08845736 46222,6917.863,95.437,540.769,538.687,0.0
54195.0,STARLINK-5258,PAYLOAD,2023-08-26 00:52:58,15.08837475,0.00014,53.2169,194.1043,102.1253,257.9896,1.6432e-05,-2.6e-07,0.0,0 STARLINK-5258,1 54195U 22141AQ  23238.03679391 -.00000026  00000-0  16432-4 0  9999,2 54195  53.2169 194.1043 0001400 102.1253 257.9896 15.08837475 46333,6917.888,95.438,540.722,538.785,0.0
54195.0,STARLINK-5258,PAYLOAD,2023-08-26 07:14:31,15.08841411,0.0001285,53.217,192.9164,92.943,267.1709,3.8535e-05,3.25e-06,0.0,0 STARLINK-5258,1 54195U 22141AQ  23238.30175132  .00000325  00000-0  38535-4 0  9992,2 54195  53.2170 192.9164 0001285  92.9430 267.1709 15.08841411 46149,6917.876,95.437,540.63,538.852,0.0
54195.0,STARLINK-5258,PAYLOAD,2023-08-27 02:19:09,15.08840458,0.0001314,53.2178,189.348,92.9499,267.1644,-2.3539e-05,-6.63e-06,0.0,0 STARLINK-5258,1 54195U 22141AQ  23239.09663509 -.00000663  00000-0 -23539-4 0  9994,2 54195  53.2178 189.3480 0001314  92.9499 267.1644 15.08840458 46492,6917.879,95.438,540.653,538.835,0.0
54195.0,STARLINK-5258,PAYLOAD,2023-08-27 05:29:55,15.08842115,0.0001297,53.2178,188.7534,85.9484,274.1657,-6.6905e-06,-3.94e-06,0.0,0 STARLINK-5258,1 54195U 22141AQ  23239.22911386 -.00000394  00000-0 -66905-5 0  9994,2 54195  53.2178 188.7534 0001297  85.9484 274.1657 15.08842115 46282,6917.874,95.437,540.636,538.842,0.0
54195.0,STARLINK-5258,PAYLOAD,2023-08-28 00:34:33,15.08820416,0.0001405,53.2179,185.1851,94.3508,265.7644,0.00022106,3.23e-05,0.0,0 STARLINK-5258,1 54195U 22141AQ  23240.02399989  .00003230  00000-0  22106-3 0  9996,2 54195  53.2179 185.1851 0001405  94.3508 265.7644 15.08820416 46639,6917.94,95.439,540.777,538.833,0.0
54195.0,STARLINK-5258,PAYLOAD,2023-08-28 05:20:42,15.08839332,0.0001331,53.2178,184.2931,93.8162,266.2983,6.9928e-05,8.25e-06,0.0,0 STARLINK-5258,1 54195U 22141AQ  23240.22271483  .00000825  00000-0  69928-4 0  9997,2 54195  53.2178 184.2931 0001331  93.8162 266.2983 15.08839332 46667,6917.882,95.438,540.668,538.827,0.0
54195.0,STARLINK-5258,PAYLOAD,2023-08-28 13:17:38,15.08836656,0.0001366,53.2181,182.8064,87.1352,272.9796,2.6112e-05,1.28e-06,0.0,0 STARLINK-5258,1 54195U 22141AQ  23240.55391846  .00000128  00000-0  26112-4 0  9993,2 54195  53.2181 182.8064 0001366  87.1352 272.9796 15.08836656 46489,6917.891,95.438,540.701,538.811,0.0
54195.0,STARLINK-5258,PAYLOAD,2023-08-29 00:25:20,15.08837493,0.0001313,53.2178,180.7253,86.9485,273.1657,-1.1463e-05,-4.7e-06,0.0,0 STARLINK-5258,1 54195U 22141AQ  23241.01760098 -.00000470  00000-0 -11463-4 0  9999,2 54195  53.2178 180.7253 0001313  86.9485 273.1657 15.08837493 46780,6917.888,95.438,540.661,538.845,0.0
54195.0,STARLINK-5258,PAYLOAD,2023-08-29 06:46:52,15.08840987,0.0001449,53.2179,179.5351,96.5492,263.5665,4.3997e-05,4.12e-06,0.0,0 STARLINK-5258,1 54195U 22141AQ  23241.28255713  .00000412  00000-0  43997-4 0  9992,2 54195  53.2179 179.5351 0001449  96.5492 263.5665 15.08840987 46594,6917.877,95.437,540.745,538.74,0.0
54195.0,STARLINK-5258,PAYLOAD,2023-08-30 05:02:17,15.0883855,0.0001397,53.2173,175.3715,92.4898,267.6254,-2.5885e-07,-2.92e-06,0.0,0 STARLINK-5258,1 54195U 22141AQ  23242.20992321 -.00000292  00000-0 -25885-6 0  9994,2 54195  53.2173 175.3715 0001397  92.4898 267.6254 15.08838550 46966,6917.885,95.438,540.716,538.783,0.0
54195.0,STARLINK-5258,PAYLOAD,2023-08-30 12:59:12,15.08841923,0.0001213,53.2167,173.8862,98.2732,261.8398,1.9696e-05,2.6e-07,0.0,0 STARLINK-5258,1 54195U 22141AQ  23242.54111978  .00000026  00000-0  19696-4 0  9996,2 54195  53.2167 173.8862 0001213  98.2732 261.8398 15.08841923 46786,6917.875,95.437,540.579,538.9,0.0
54195.0,STARLINK-5258,PAYLOAD,2023-08-31 04:53:03,15.08849678,0.0001247,53.2173,170.9121,99.8128,260.3005,7.621e-05,9.26e-06,0.0,0 STARLINK-5258,1 54195U 22141AQ  23243.20351160  .00000926  00000-0  76210-4 0  9993,2 54195  53.2173 170.9121 0001247  99.8128 260.3005 15.08849678 47114,6917.851,95.437,540.578,538.853,0.0
54195.0,STARLINK-5258,PAYLOAD,2023-09-01 01:33:06,15.0883698,6.26e-05,53.2172,167.0502,7.1597,352.9403,-0.00032133,-5.397e-05,0.0,0 STARLINK-5258,1 54195U 22141AQ  23244.06465295 -.00005397  00000-0 -32133-3 0  9997,2 54195  53.2172 167.0502 0000626   7.1597 352.9403 15.08836980 47241,6917.89,95.438,540.188,539.322,0.0
54195.0,STARLINK-5258,PAYLOAD,2023-09-01 04:43:47,15.08898125,3.41e-05,53.2171,166.4548,17.8354,342.265,0.00025438,3.77e-05,0.0,0 STARLINK-5258,1 54195U 22141AQ  23244.19707679  .00003770  00000-0  25438-3 0  9997,2 54195  53.2171 166.4548 0000341  17.8354 342.2650 15.08898125 47263,6917.703,95.434,539.804,539.332,0.0
54195.0,STARLINK-5258,PAYLOAD,2023-09-01 19:02:18,15.08790893,0.0001996,53.2148,163.7792,268.9988,91.0776,0.00099548,0.00015569,0.0,0 STARLINK-5258,1 54195U 22141AQ  23244.79327350  .00015569  00000-0  99548-3 0  9999,2 54195  53.2148 163.7792 0001996 268.9988  91.0776 15.08790893 47358,6918.03,95.441,541.276,538.515,0.0
54195.0,STARLINK-5258,PAYLOAD,2023-09-02 01:23:54,15.08762679,0.000176,53.216,162.5892,260.7735,99.3059,0.00066978,0.00010365,0.0,0 STARLINK-5258,1 54195U 22141AQ  23245.05826751  .00010365  00000-0  66978-3 0  9998,2 54195  53.2160 162.5892 0001760 260.7735  99.3059 15.08762679 47399,6918.117,95.442,541.199,538.764,0.0
54195.0,STARLINK-5258,PAYLOAD,2023-09-02 04:34:37,15.08846036,0.0001482,53.2161,161.9909,90.1012,270.015,0.00013644,1.884e-05,0.0,0 STARLINK-5258,1 54195U 22141AQ  23245.19071190  .00001884  00000-0  13644-3 0  9990,2 54195  53.2161 161.9909 0001482  90.1012 270.0150 15.08846036 47419,6917.862,95.437,540.752,538.702,0.0
54195.0,STARLINK-5258,PAYLOAD,2023-09-02 17:17:43,15.08832864,0.0002009,53.2165,159.613,90.2653,269.857,1.3877e-05,-6.7e-07,0.0,0 STARLINK-5258,1 54195U 22141AQ  23245.72064642 -.00000067  00000-0  13877-4 0  9995,2 54195  53.2165 159.6130 0002009  90.2653 269.8570 15.08832864 47495,6917.902,95.438,541.157,538.377,0.0
54195.0,STARLINK-5258,PAYLOAD,2023-09-03 01:14:39,15.08842628,0.0001311,53.2171,158.1282,95.1658,264.9484,-3.7048e-05,-8.78e-06,0.0,0 STARLINK-5258,1 54195U 22141AQ  23246.05184227 -.00000878  00000-0 -37048-4 0  9991,2 54195  53.2171 158.1282 0001311  95.1658 264.9484 15.08842628 47318,6917.872,95.437,540.644,538.83,0.0
54195.0,STARLINK-5258,PAYLOAD,2023-09-04 02:40:50,15.08836013,0.0001442,53.2172,153.3688,95.3274,264.7883,-6.166e-05,-1.269e-05,0.0,0 STARLINK-5258,1 54195U 22141AQ  23247.11169107 -.00001269  00000-0 -61660-4 0  9991,2 54195  53.2172 153.3688 0001442  95.3274 264.7883 15.08836013 47702,6917.893,95.438,540.755,538.76,0.0
54195.0,STARLINK-5258,PAYLOAD,2023-09-04 10:37:45,15.08831563,0.0001774,53.2174,151.8819,95.2199,264.8996,7.4766e-05,9.02e-06,0.0,0 STARLINK-5258,1 54195U 22141AQ  23247.44289239  .00000902  00000-0  74766-4 0  9998,2 54195  53.2174 151.8819 0001774  95.2199 264.8996 15.08831563 47527,6917.906,95.438,540.998,538.544,0.0
54195.0,STARLINK-5258,PAYLOAD,2023-09-05 02:31:36,15.08841716,0.0001296,53.2171,148.9079,98.3935,261.7204,8.1102e-05,1.003e-05,0.0,0 STARLINK-5258,1 54195U 22141AQ  23248.10528713  .00001003  00000-0  81102-4 0  9990,2 54195  53.2171 148.9079 0001296  98.3935 261.7204 15.08841716 47855,6917.875,95.437,540.637,538.844,0.0
54195.0,STARLINK-5258,PAYLOAD,2023-09-06 03:57:47,15.08837308,0.0001244,53.2177,144.1494,84.1383,275.9751,0.00019707,2.85e-05,0.0,0 STARLINK-5258,1 54195U 22141AQ  23249.16512769  .00002850  00000-0  19707-3 0  9993,2 54195  53.2177 144.1494 0001244  84.1383 275.9751 15.08837308 48018,6917.889,95.438,540.614,538.893,0.0
54195.0,STARLINK-5258,PAYLOAD,2023-09-07 02:13:10,15.08845432,0.000135,53.2184,139.9855,92.4004,267.7142,1.0268e-05,-1.24e-06,0.0,0 STARLINK-5258,1 54195U 22141AQ  23250.09248685 -.00000124  00000-0  10268-4 0  9997,2 54195  53.2184 139.9855 0001350  92.4004 267.7142 15.08845432 47928,6917.864,95.437,540.663,538.795,0.0
